<?xml version="1.0" encoding="UTF-8"?>
<ndm xmlns:xsi="http://www.w3.org/2001/XMLSchema-instance" xsi:noNamespaceSchemaLocation="https://sanaregistry.org/r/ndmxml_unqualified/ndmxml-2.0.0-master-2.0.xsd">
<omm id="CCSDS_OMM_VERS" version="2.0">
<header><CREATION_DATE/><ORIGINATOR/></header><body><segment><metadata><OBJECT_NAME>STARLINK-32959</OBJECT_NAME><OBJECT_ID>2025-076A</OBJECT_ID><CENTER_NAME>EARTH</CENTER_NAME><REF_FRAME>TEME</REF_FRAME><TIME_SYSTEM>UTC</TIME_SYSTEM><MEAN_ELEMENT_THEORY>SGP4</MEAN_ELEMENT_THEORY></metadata><data><meanElements><EPOCH>2025-05-07T22:00:01.999584</EPOCH><MEAN_MOTION>15.44747117</MEAN_MOTION><ECCENTRICITY>.0001636</ECCENTRICITY><INCLINATION>42.9993</INCLINATION><RA_OF_ASC_NODE>255.6182</RA_OF_ASC_NODE><ARG_OF_PERICENTER>285.3045</ARG_OF_PERICENTER><MEAN_ANOMALY>141.1245</MEAN_ANOMALY></meanElements><tleParameters><EPHEMERIS_TYPE>0</EPHEMERIS_TYPE><CLASSIFICATION_TYPE>U</CLASSIFICATION_TYPE><NORAD_CAT_ID>63569</NORAD_CAT_ID><ELEMENT_SET_NO>999</ELEMENT_SET_NO><REV_AT_EPOCH>481</REV_AT_EPOCH><BSTAR>-.34542E-1</BSTAR><MEAN_MOTION_DOT>-.1495791E-1</MEAN_MOTION_DOT><MEAN_MOTION_DDOT>0</MEAN_MOTION_DDOT></tleParameters></data></segment></body></omm>
<omm id="CCSDS_OMM_VERS" version="2.0">
<header><CREATION_DATE/><ORIGINATOR/></header><body><segment><metadata><OBJECT_NAME>STARLINK-32956</OBJECT_NAME><OBJECT_ID>2025-076B</OBJECT_ID><CENTER_NAME>EARTH</CENTER_NAME><REF_FRAME>TEME</REF_FRAME><TIME_SYSTEM>UTC</TIME_SYSTEM><MEAN_ELEMENT_THEORY>SGP4</MEAN_ELEMENT_THEORY></metadata><data><meanElements><EPOCH>2025-05-08T06:00:02.000160</EPOCH><MEAN_MOTION>15.44614533</MEAN_MOTION><ECCENTRICITY>.0001432</ECCENTRICITY><INCLINATION>42.9994</INCLINATION><RA_OF_ASC_NODE>253.6647</RA_OF_ASC_NODE><ARG_OF_PERICENTER>268.0099</ARG_OF_PERICENTER><MEAN_ANOMALY>222.4535</MEAN_ANOMALY></meanElements><tleParameters><EPHEMERIS_TYPE>0</EPHEMERIS_TYPE><CLASSIFICATION_TYPE>U</CLASSIFICATION_TYPE><NORAD_CAT_ID>63570</NORAD_CAT_ID><ELEMENT_SET_NO>999</ELEMENT_SET_NO><REV_AT_EPOCH>496</REV_AT_EPOCH><BSTAR>-.34697E-1</BSTAR><MEAN_MOTION_DOT>-.1495601E-1</MEAN_MOTION_DOT><MEAN_MOTION_DDOT>0</MEAN_MOTION_DDOT></tleParameters></data></segment></body></omm>
<omm id="CCSDS_OMM_VERS" version="2.0">
<header><CREATION_DATE/><ORIGINATOR/></header><body><segment><metadata><OBJECT_NAME>STARLINK-33722</OBJECT_NAME><OBJECT_ID>2025-076C</OBJECT_ID><CENTER_NAME>EARTH</CENTER_NAME><REF_FRAME>TEME</REF_FRAME><TIME_SYSTEM>UTC</TIME_SYSTEM><MEAN_ELEMENT_THEORY>SGP4</MEAN_ELEMENT_THEORY></metadata><data><meanElements><EPOCH>2025-05-08T06:00:02.000160</EPOCH><MEAN_MOTION>15.59479866</MEAN_MOTION><ECCENTRICITY>.000132</ECCENTRICITY><INCLINATION>42.9996</INCLINATION><RA_OF_ASC_NODE>251.6387</RA_OF_ASC_NODE><ARG_OF_PERICENTER>257.5641</ARG_OF_PERICENTER><MEAN_ANOMALY>327.3227</MEAN_ANOMALY></meanElements><tleParameters><EPHEMERIS_TYPE>0</EPHEMERIS_TYPE><CLASSIFICATION_TYPE>U</CLASSIFICATION_TYPE><NORAD_CAT_ID>63571</NORAD_CAT_ID><ELEMENT_SET_NO>999</ELEMENT_SET_NO><REV_AT_EPOCH>503</REV_AT_EPOCH><BSTAR>-.19908E-1</BSTAR><MEAN_MOTION_DOT>-.14518E-1</MEAN_MOTION_DOT><MEAN_MOTION_DDOT>0</MEAN_MOTION_DDOT></tleParameters></data></segment></body></omm>
<omm id="CCSDS_OMM_VERS" version="2.0">
<header><CREATION_DATE/><ORIGINATOR/></header><body><segment><metadata><OBJECT_NAME>STARLINK-33739</OBJECT_NAME><OBJECT_ID>2025-076D</OBJECT_ID><CENTER_NAME>EARTH</CENTER_NAME><REF_FRAME>TEME</REF_FRAME><TIME_SYSTEM>UTC</TIME_SYSTEM><MEAN_ELEMENT_THEORY>SGP4</MEAN_ELEMENT_THEORY></metadata><data><meanElements><EPOCH>2025-05-08T06:00:02.000160</EPOCH><MEAN_MOTION>15.59480331</MEAN_MOTION><ECCENTRICITY>.0001361</ECCENTRICITY><INCLINATION>42.9995</INCLINATION><RA_OF_ASC_NODE>251.6346</RA_OF_ASC_NODE><ARG_OF_PERICENTER>255.1383</ARG_OF_PERICENTER><MEAN_ANOMALY>331.6658</MEAN_ANOMALY></meanElements><tleParameters><EPHEMERIS_TYPE>0</EPHEMERIS_TYPE><CLASSIFICATION_TYPE>U</CLASSIFICATION_TYPE><NORAD_CAT_ID>63572</NORAD_CAT_ID><ELEMENT_SET_NO>999</ELEMENT_SET_NO><REV_AT_EPOCH>498</REV_AT_EPOCH><BSTAR>-.19909E-1</BSTAR><MEAN_MOTION_DOT>-.1451907E-1</MEAN_MOTION_DOT><MEAN_MOTION_DDOT>0</MEAN_MOTION_DDOT></tleParameters></data></segment></body></omm>
<omm id="CCSDS_OMM_VERS" version="2.0">
<header><CREATION_DATE/><ORIGINATOR/></header><body><segment><metadata><OBJECT_NAME>STARLINK-33683</OBJECT_NAME><OBJECT_ID>2025-076E</OBJECT_ID><CENTER_NAME>EARTH</CENTER_NAME><REF_FRAME>TEME</REF_FRAME><TIME_SYSTEM>UTC</TIME_SYSTEM><MEAN_ELEMENT_THEORY>SGP4</MEAN_ELEMENT_THEORY></metadata><data><meanElements><EPOCH>2025-05-08T06:00:02.000160</EPOCH><MEAN_MOTION>15.59479505</MEAN_MOTION><ECCENTRICITY>.0001393</ECCENTRICITY><INCLINATION>42.9995</INCLINATION><RA_OF_ASC_NODE>251.6239</RA_OF_ASC_NODE><ARG_OF_PERICENTER>261.0553</ARG_OF_PERICENTER><MEAN_ANOMALY>329.5829</MEAN_ANOMALY></meanElements><tleParameters><EPHEMERIS_TYPE>0</EPHEMERIS_TYPE><CLASSIFICATION_TYPE>U</CLASSIFICATION_TYPE><NORAD_CAT_ID>63573</NORAD_CAT_ID><ELEMENT_SET_NO>999</ELEMENT_SET_NO><REV_AT_EPOCH>492</REV_AT_EPOCH><BSTAR>-.199E-1</BSTAR><MEAN_MOTION_DOT>-.1451292E-1</MEAN_MOTION_DOT><MEAN_MOTION_DDOT>0</MEAN_MOTION_DDOT></tleParameters></data></segment></body></omm>
<omm id="CCSDS_OMM_VERS" version="2.0">
<header><CREATION_DATE/><ORIGINATOR/></header><body><segment><metadata><OBJECT_NAME>STARLINK-33724</OBJECT_NAME><OBJECT_ID>2025-076F</OBJECT_ID><CENTER_NAME>EARTH</CENTER_NAME><REF_FRAME>TEME</REF_FRAME><TIME_SYSTEM>UTC</TIME_SYSTEM><MEAN_ELEMENT_THEORY>SGP4</MEAN_ELEMENT_THEORY></metadata><data><meanElements><EPOCH>2025-05-07T13:20:46.272768</EPOCH><MEAN_MOTION>15.73812075</MEAN_MOTION><ECCENTRICITY>.0002628</ECCENTRICITY><INCLINATION>42.9980</INCLINATION><RA_OF_ASC_NODE>255.5612</RA_OF_ASC_NODE><ARG_OF_PERICENTER>288.6352</ARG_OF_PERICENTER><MEAN_ANOMALY>71.4231</MEAN_ANOMALY></meanElements><tleParameters><EPHEMERIS_TYPE>0</EPHEMERIS_TYPE><CLASSIFICATION_TYPE>U</CLASSIFICATION_TYPE><NORAD_CAT_ID>63574</NORAD_CAT_ID><ELEMENT_SET_NO>999</ELEMENT_SET_NO><REV_AT_EPOCH>495</REV_AT_EPOCH><BSTAR>.1003E-2</BSTAR><MEAN_MOTION_DOT>.14822E-2</MEAN_MOTION_DOT><MEAN_MOTION_DDOT>0</MEAN_MOTION_DDOT></tleParameters></data></segment></body></omm>
<omm id="CCSDS_OMM_VERS" version="2.0">
<header><CREATION_DATE/><ORIGINATOR/></header><body><segment><metadata><OBJECT_NAME>STARLINK-33732</OBJECT_NAME><OBJECT_ID>2025-076G</OBJECT_ID><CENTER_NAME>EARTH</CENTER_NAME><REF_FRAME>TEME</REF_FRAME><TIME_SYSTEM>UTC</TIME_SYSTEM><MEAN_ELEMENT_THEORY>SGP4</MEAN_ELEMENT_THEORY></metadata><data><meanElements><EPOCH>2025-05-08T06:00:02.000160</EPOCH><MEAN_MOTION>15.59479266</MEAN_MOTION><ECCENTRICITY>.0001368</ECCENTRICITY><INCLINATION>42.9997</INCLINATION><RA_OF_ASC_NODE>251.6294</RA_OF_ASC_NODE><ARG_OF_PERICENTER>260.3281</ARG_OF_PERICENTER><MEAN_ANOMALY>328.3940</MEAN_ANOMALY></meanElements><tleParameters><EPHEMERIS_TYPE>0</EPHEMERIS_TYPE><CLASSIFICATION_TYPE>U</CLASSIFICATION_TYPE><NORAD_CAT_ID>63575</NORAD_CAT_ID><ELEMENT_SET_NO>999</ELEMENT_SET_NO><REV_AT_EPOCH>482</REV_AT_EPOCH><BSTAR>-.19897E-1</BSTAR><MEAN_MOTION_DOT>-.1451073E-1</MEAN_MOTION_DOT><MEAN_MOTION_DDOT>0</MEAN_MOTION_DDOT></tleParameters></data></segment></body></omm>
<omm id="CCSDS_OMM_VERS" version="2.0">
<header><CREATION_DATE/><ORIGINATOR/></header><body><segment><metadata><OBJECT_NAME>STARLINK-33800</OBJECT_NAME><OBJECT_ID>2025-076H</OBJECT_ID><CENTER_NAME>EARTH</CENTER_NAME><REF_FRAME>TEME</REF_FRAME><TIME_SYSTEM>UTC</TIME_SYSTEM><MEAN_ELEMENT_THEORY>SGP4</MEAN_ELEMENT_THEORY></metadata><data><meanElements><EPOCH>2025-05-08T06:00:02.000160</EPOCH><MEAN_MOTION>15.59479042</MEAN_MOTION><ECCENTRICITY>.0001358</ECCENTRICITY><INCLINATION>42.9997</INCLINATION><RA_OF_ASC_NODE>251.6191</RA_OF_ASC_NODE><ARG_OF_PERICENTER>260.3815</ARG_OF_PERICENTER><MEAN_ANOMALY>332.1749</MEAN_ANOMALY></meanElements><tleParameters><EPHEMERIS_TYPE>0</EPHEMERIS_TYPE><CLASSIFICATION_TYPE>U</CLASSIFICATION_TYPE><NORAD_CAT_ID>63576</NORAD_CAT_ID><ELEMENT_SET_NO>999</ELEMENT_SET_NO><REV_AT_EPOCH>503</REV_AT_EPOCH><BSTAR>-.19893E-1</BSTAR><MEAN_MOTION_DOT>-.1450795E-1</MEAN_MOTION_DOT><MEAN_MOTION_DDOT>0</MEAN_MOTION_DDOT></tleParameters></data></segment></body></omm>

</ndm>